CCSDS_OEM_VERS = 1.0
CREATION_DATE  = 2017-05-11T11:02:03
ORIGINATOR     = GMAT USER

META_START
OBJECT_NAME          = MOPSSat_alt_35785_km_RAAN_0_083
OBJECT_ID            = SatId
CENTER_NAME          = Earth
REF_FRAME            = EME2000
TIME_SYSTEM          = UTC
START_TIME           = 2017-01-01T00:00:00.000
USEABLE_START_TIME   = 2017-01-01T00:00:00.000
USEABLE_STOP_TIME    = 2017-01-02T00:00:00.000
STOP_TIME            = 2017-01-02T00:00:00.000
INTERPOLATION        = Lagrange
INTERPOLATION_DEGREE = 7 
META_STOP


                                                                                   

2017-01-01T00:45:50.000   4.088038847362440e+04   8.481430159514761e+03   7.130041753471066e-03  -6.246585884175510e-01   3.041437667900364e+00   1.787653237647887e-07
2017-01-01T00:46:00.000   4.087413069274589e+04   8.511842210765317e+03   7.131757174517326e-03  -6.268975166781697e-01   3.040972246833855e+00   1.643246526753100e-07
2017-01-01T00:46:10.000   4.086785052447105e+04   8.542249598904038e+03   7.133328361977503e-03  -6.291360915437216e-01   3.040505162330849e+00   1.499186144113134e-07
2017-01-01T00:46:20.000   4.086154797227512e+04   8.572652307611794e+03   7.134755662242448e-03  -6.313743117785618e-01   3.040036414664803e+00   1.355472183358261e-07
2017-01-01T00:46:30.000   4.085522303966121e+04   8.603050320497900e+03   7.136039421793534e-03  -6.336121761418063e-01   3.039566004111291e+00   1.212104738052274e-07
2017-01-01T00:46:40.000   4.084887573012322e+04   8.633443621280730e+03   7.137179987213344e-03  -6.358496834006284e-01   3.039093930945259e+00   1.069083900800236e-07
2017-01-01T00:46:50.000   4.084250604724471e+04   8.663832193301903e+03   7.138177705150853e-03  -6.380868322944929e-01   3.038620195448365e+00   9.264097656833803e-08
2017-01-01T00:47:00.000   4.083611399461779e+04   8.694216019927284e+03   7.139032922352002e-03  -6.403236215646795e-01   3.038144797902954e+00   7.840824262216152e-08
2017-01-01T00:47:10.000   4.082969957586101e+04   8.724595084457476e+03   7.139745985651516e-03  -6.425600499476910e-01   3.037667738593391e+00   6.421019758474230e-08
2017-01-01T00:47:20.000   4.082326279461606e+04   8.754969370152474e+03   7.140317241984128e-03  -6.447961161770712e-01   3.037189017805805e+00   5.004685076405234e-08
2017-01-01T00:47:30.000   4.081680365453987e+04   8.785338860261621e+03   7.140747038375858e-03  -6.470318189856085e-01   3.036708635827515e+00   3.591821143334453e-08
2017-01-01T00:47:40.000   4.081032215930267e+04   8.815703538034641e+03   7.141035721945098e-03  -6.492671571061482e-01   3.036226592946869e+00   2.182428882119603e-08
2017-01-01T00:47:50.000   4.080381831256529e+04   8.846063386830363e+03   7.141183639907640e-03  -6.515021292795983e-01   3.035742889451575e+00   7.765092072541278e-09
2017-01-01T00:48:00.000   4.079729211799383e+04   8.876418390044160e+03   7.141191139569849e-03  -6.537367342495856e-01   3.035257525629779e+00  -6.259369728808976e-09
2017-01-01T00:48:10.000   4.079074357925986e+04   8.906768531107993e+03   7.141058568329504e-03  -6.559709707624599e-01   3.034770501770081e+00  -2.024908755595400e-08
2017-01-01T00:48:20.000   4.078417270002391e+04   8.937113793562601e+03   7.140786273669568e-03  -6.582048375726079e-01   3.034281818160308e+00  -3.420405248327028e-08
2017-01-01T00:48:30.000   4.077757948395957e+04   8.967454160949097e+03   7.140374603162302e-03  -6.604383334344743e-01   3.033791475089312e+00  -4.812425562502455e-08
2017-01-01T00:48:40.000   4.077096393475594e+04   8.997789616798102e+03   7.139823904470117e-03  -6.626714571017600e-01   3.033299472847146e+00  -6.200968813513763e-08
2017-01-01T00:48:50.000   4.076432605612295e+04   9.028120144599194e+03   7.139134525336961e-03  -6.649042073251755e-01   3.032805811725460e+00  -7.586034117882456e-08
2017-01-01T00:49:00.000   4.075766585179824e+04   9.058445727777093e+03   7.138306813598830e-03  -6.671365828506853e-01   3.032310492018016e+00  -8.967620593646809e-08
2017-01-01T00:49:10.000   4.075098332552695e+04   9.088766349780657e+03   7.137341117176728e-03  -6.693685824260617e-01   3.031813514019180e+00  -1.034572736386619e-07
2017-01-01T00:49:20.000   4.074427848115190e+04   9.119081993683909e+03   7.136237784102505e-03  -6.716002047715148e-01   3.031314878030636e+00  -1.172035354004795e-07
2017-01-01T00:49:30.000   4.073755132250480e+04   9.149392642669663e+03   7.134997162489631e-03  -6.738314486152939e-01   3.030814584353287e+00  -1.309149824256594e-07
2017-01-01T00:49:40.000   4.073080185344646e+04   9.179698279849648e+03   7.133619600541930e-03  -6.760623126804447e-01   3.030312633290247e+00  -1.445916059301719e-07
2017-01-01T00:49:50.000   4.072403007771172e+04   9.209998888961669e+03   7.132105446522949e-03  -6.782927957361315e-01   3.029809025135315e+00  -1.582333974446407e-07
2017-01-01T00:50:00.000   4.071723599906392e+04   9.240294453674178e+03   7.130455048784396e-03  -6.805228965464433e-01   3.029303760184458e+00  -1.718403485123849e-07
2017-01-01T00:50:10.000   4.071041962126033e+04   9.270584957743937e+03   7.128668755761704e-03  -6.827526138820008e-01   3.028796838733238e+00  -1.854124507567917e-07
2017-01-01T00:50:20.000   4.070358094813732e+04   9.300870384623053e+03   7.126746915977963e-03  -6.849819464910289e-01   3.028288261083149e+00  -1.989496957131850e-07
2017-01-01T00:50:30.000   4.069671998354796e+04   9.331150717750952e+03   7.124689878045505e-03  -6.872108931208486e-01   3.027778027536976e+00  -2.124520749518129e-07
2017-01-01T00:50:40.000   4.068983673136081e+04   9.361425940554096e+03   7.122497990658074e-03  -6.894394525178591e-01   3.027266138398706e+00  -2.259195800803404e-07
2017-01-01T00:50:50.000   4.068293119552908e+04   9.391696036155588e+03   7.120171602629271e-03  -6.916676234061589e-01   3.026752593978669e+00  -2.393522026070000e-07
2017-01-01T00:51:00.000   4.067600337999863e+04   9.421960987766612e+03   7.117711062846804e-03  -6.938954045163640e-01   3.026237394586694e+00  -2.527499341224922e-07
2017-01-01T00:51:10.000   4.066905328874382e+04   9.452220778532153e+03   7.115116720287654e-03  -6.961227945742475e-01   3.025720540534781e+00  -2.661127662284648e-07
2017-01-01T00:51:20.000   4.066208092561088e+04   9.482475392213913e+03   7.112388923959870e-03  -6.983497923510096e-01   3.025202032125448e+00  -2.794406908495684e-07
2017-01-01T00:51:30.000   4.065508629447422e+04   9.512724812507378e+03   7.109528022958584e-03  -7.005763966130074e-01   3.024681869663361e+00  -2.927336999213596e-07
2017-01-01T00:51:40.000   4.064806939920167e+04   9.542969023196298e+03   7.106534366455305e-03  -7.028026061331277e-01   3.024160053452742e+00  -3.059917854620051e-07
2017-01-01T00:51:50.000   4.064103024374216e+04   9.573208007760313e+03   7.103408303717849e-03  -7.050284196619023e-01   3.023636583803892e+00  -3.192149393895223e-07
2017-01-01T00:52:00.000   4.063396883206140e+04   9.603441749666486e+03   7.100150184099956e-03  -7.072538359489698e-01   3.023111461028408e+00  -3.324031536596267e-07
2017-01-01T00:52:10.000   4.062688516814067e+04   9.633670232369052e+03   7.096760357033553e-03  -7.094788537430545e-01   3.022584685439096e+00  -3.455564202630159e-07
2017-01-01T00:52:20.000   4.061977925604793e+04   9.663893439019435e+03   7.093239172078446e-03  -7.117034717706263e-01   3.022056257355252e+00  -3.586747311030605e-07
2017-01-01T00:52:30.000   4.061265109984310e+04   9.694111352857108e+03   7.089586978861332e-03  -7.139276887646671e-01   3.021526177095627e+00  -3.717580781632720e-07
2017-01-01T00:52:40.000   4.060550070361521e+04   9.724323957055536e+03   7.085804127097017e-03  -7.161515034533336e-01   3.020994444981180e+00  -3.848064534398282e-07
2017-01-01T00:52:50.000   4.059832807132090e+04   9.754531235404051e+03   7.081890966503303e-03  -7.183749146101436e-01   3.020461061323076e+00  -3.978198492435915e-07
2017-01-01T00:53:00.000   4.059113320694555e+04   9.784733171625930e+03   7.077847846883947e-03  -7.205979210037874e-01   3.019926026434665e+00  -4.107982578969450e-07
2017-01-01T00:53:10.000   4.058391611446732e+04   9.814929749532701e+03   7.073675118111774e-03  -7.228205214094822e-01   3.019389340628807e+00  -4.237416718045249e-07
2017-01-01T00:53:20.000   4.057667679794748e+04   9.845120952632329e+03   7.069373130164391e-03  -7.250427145801336e-01   3.018851004224592e+00  -4.366500832690623e-07
2017-01-01T00:53:30.000   4.056941526146414e+04   9.875306764420324e+03   7.064942233101944e-03  -7.272644992677625e-01   3.018311017542409e+00  -4.495234846327062e-07
2017-01-01T00:53:40.000   4.056213150911114e+04   9.905487168379452e+03   7.060382777059609e-03  -7.294858742234852e-01   3.017769380903863e+00  -4.623618682706498e-07
2017-01-01T00:53:50.000   4.055482554507087e+04   9.935662147690280e+03   7.055695112308047e-03  -7.317068381762081e-01   3.017226094637195e+00  -4.751652264853496e-07
2017-01-01T00:54:00.000   4.054749737351730e+04   9.965831685621375e+03   7.050879589177717e-03  -7.339273898613478e-01   3.016681159070064e+00  -4.879335516553369e-07
2017-01-01T00:54:10.000   4.054014699865440e+04   9.995995765372581e+03   7.045936558086564e-03  -7.361475280092954e-01   3.016134574532413e+00  -5.006668361743945e-07
2017-01-01T00:54:20.000   4.053277442454778e+04   1.002615437076715e+04   7.040866369426308e-03  -7.383672513963596e-01   3.015586341343936e+00  -5.133650727306933e-07
2017-01-01T00:54:30.000   4.052537965529331e+04   1.005630748555783e+04   7.035669373674404e-03  -7.405865587936923e-01   3.015036459826632e+00  -5.260282540265521e-07
2017-01-01T00:54:40.000   4.051796269497384e+04   1.008645509360607e+04   7.030345921365851e-03  -7.428054489804792e-01   3.014484930301573e+00  -5.386563728497590e-07
2017-01-01T00:54:50.000   4.051052354777517e+04   1.011659717840000e+04   7.024896363163493e-03  -7.450239207084637e-01   3.013931753097539e+00  -5.512494218808715e-07
